<kml xmlns="http://www.opengis.net/kml/2.2" xmlns:gx="http://www.google.com/kml/ext/2.2" xmlns:xsi="http://www.w3.org/2001/XMLSchema-instance" xsi:schemaLocation="http://www.opengis.net/kml/2.2 https://developers.google.com/kml/schema/kml22gx.xsd"><Document><name>Tourenkarte</name><Placemark id="drawing_feature_1785240292361"><name>Gross Furkahorn</name><description><![CDATA[<a target="_parent" href="https://schluesselstelle.blogspot.com/2026/07/gross-furkahorn-sudostgrat-4c-17-sl.html">Südostgrat 4c (4c)</a>]]></description><Style><IconStyle><scale>1.125</scale><Icon><href>https://map.geo.admin.ch/api/icons/sets/default/icons/001-marker@1x-255,0,0.png</href><gx:w>48</gx:w><gx:h>48</gx:h></Icon><hotSpot x="24" y="6" xunits="pixels" yunits="pixels"/></IconStyle><LabelStyle><color>ff0000ff</color></LabelStyle></Style><ExtendedData><Data name="showDescriptionOnMap"><value>false</value></Data><Data name="textOffset"><value>0,-42</value></Data><Data name="type"><value>marker</value></Data></ExtendedData><Point><coordinates>8.410446652956562,46.59656487177324,0</coordinates></Point></Placemark><Placemark id="drawing_feature_1785240810026"><name>Namenloser Turm</name><description><![CDATA[<a target="_parent" href="https://schluesselstelle.blogspot.com/2026/07/bockmattli-kairos-6b-6-sl-180m.html">Kairos 6b (6a)</a>
<br>
<a target="_blank" href="https://schluesselstelle.blogspot.com/2026/07/bockmattli-chronos-6b-5-sl-185m.html">Chronos 6b (6a+)</a>]]></description><Style><IconStyle><scale>1.125</scale><Icon><href>https://map.geo.admin.ch/api/icons/sets/default/icons/001-marker@1x-255,0,0.png</href><gx:w>48</gx:w><gx:h>48</gx:h></Icon><hotSpot x="24" y="6" xunits="pixels" yunits="pixels"/></IconStyle><LabelStyle><color>ff0000ff</color></LabelStyle></Style><ExtendedData><Data name="showDescriptionOnMap"><value>false</value></Data><Data name="textOffset"><value>0,-42</value></Data><Data name="type"><value>marker</value></Data></ExtendedData><Point><coordinates>8.954419576097267,47.09946249321552,0</coordinates></Point></Placemark><Placemark id="drawing_feature_1785241870190"><name>Torre dal Päl</name><description><![CDATA[<a target="_parent" href="https://schluesselstelle.blogspot.com/2026/07/albigna-tag-1-2-von-3-piz-dal-pal-el.html">El Chorro 7a (6a )</a>]]></description><Style><IconStyle><scale>1.125</scale><Icon><href>https://map.geo.admin.ch/api/icons/sets/default/icons/001-marker@1x-255,0,0.png</href><gx:w>48</gx:w><gx:h>48</gx:h></Icon><hotSpot x="24" y="6" xunits="pixels" yunits="pixels"/></IconStyle><LabelStyle><color>ff0000ff</color></LabelStyle></Style><ExtendedData><Data name="showDescriptionOnMap"><value>false</value></Data><Data name="textOffset"><value>0,-42</value></Data><Data name="type"><value>marker</value></Data></ExtendedData><Point><coordinates>9.658612996448745,46.3317117952468,0</coordinates></Point></Placemark><Placemark id="drawing_feature_1785241978568"><name>Fiamma</name><description><![CDATA[<a target="_parent" href="https://schluesselstelle.blogspot.com/2026/07/albigna-tag-3-spazzacaldeira-via-ne.html">NE-Grat, Variante Nigg, Fiamma Normalweg</a>]]></description><Style><IconStyle><scale>1.125</scale><Icon><href>https://map.geo.admin.ch/api/icons/sets/default/icons/001-marker@1x-255,0,0.png</href><gx:w>48</gx:w><gx:h>48</gx:h></Icon><hotSpot x="24" y="6" xunits="pixels" yunits="pixels"/></IconStyle><LabelStyle><color>ff0000ff</color></LabelStyle></Style><ExtendedData><Data name="showDescriptionOnMap"><value>false</value></Data><Data name="textOffset"><value>0,-42</value></Data><Data name="type"><value>marker</value></Data></ExtendedData><Point><coordinates>9.63871434918727,46.33912082711106,0</coordinates></Point></Placemark><Placemark id="drawing_feature_1785242100251"><name>Pilatus Kulm</name><description><![CDATA[<a target="_parent" href="https://schluesselstelle.blogspot.com/2026/07/pilatusdrache-galtigengrat-und-esel-via.html">Pilatusdrache, Galtigengrat, Esel</a>]]></description><Style><IconStyle><scale>1.125</scale><Icon><href>https://map.geo.admin.ch/api/icons/sets/default/icons/001-marker@1x-255,0,0.png</href><gx:w>48</gx:w><gx:h>48</gx:h></Icon><hotSpot x="24" y="6" xunits="pixels" yunits="pixels"/></IconStyle><LabelStyle><color>ff0000ff</color></LabelStyle></Style><ExtendedData><Data name="showDescriptionOnMap"><value>false</value></Data><Data name="textOffset"><value>0,-42</value></Data><Data name="type"><value>marker</value></Data></ExtendedData><Point><coordinates>8.256354435785182,46.97939202286254,0</coordinates></Point></Placemark></Document></kml>